start=new Date('2022-08-22T00:00:00.000Z').valueOf();
sats=[{"RA_OF_ASC_NODE":"278.8524","MEAN_MOTION_DDOT":"0.0000000000000","SITE":"AFETR","COUNTRY_CODE":"US","MEAN_MOTION":"15.06387761","TLE_LINE2":"2 47760  53.0535 278.8524 0001501  68.3435 291.7714 15.06387761 82307","NORAD_CAT_ID":"47760","BSTAR":"-0.00000881280000","OBJECT_TYPE":"PAYLOAD","EPOCH":"2022-08-21T20:33:06.634656","TIME_SYSTEM":"UTC","PERIAPSIS":"546.212","ARG_OF_PERICENTER":"68.3435","REF_FRAME":"TEME","EPHEMERIS_TYPE":"0","INCLINATION":"53.0535","ELEMENT_SET_NO":"999","MEAN_ELEMENT_THEORY":"SGP4","REV_AT_EPOCH":"8230","CENTER_NAME":"EARTH","LAUNCH_DATE":"2021-03-04","MEAN_MOTION_DOT":"-0.00000413","SEMIMAJOR_AXIS":"6925.386","GP_ID":"210690307","ECCENTRICITY":"0.00015010","PERIOD":"95.593","OBJECT_NAME":"STARLINK-2178","CLASSIFICATION_TYPE":"U","OBJECT_ID":"2021-017AQ","FILE":"3542671","DECAY_DATE":null,"RCS_SIZE":"LARGE","MEAN_ANOMALY":"291.7714","TLE_LINE1":"1 47760U 21017AQ  22233.85632679 -.00000413  00000-0 -88128-5 0  9995","APOAPSIS":"548.291"},{"COUNTRY_CODE":"US","MEAN_MOTION":"15.06386414","RA_OF_ASC_NODE":"269.0080","SITE":"AFETR","MEAN_MOTION_DDOT":"0.0000000000000","BSTAR":"0.00006954900000","OBJECT_TYPE":"PAYLOAD","EPOCH":"2022-08-21T19:41:22.032960","TLE_LINE2":"2 47761  53.0537 269.0080 0001396  90.2649 269.8499 15.06386414 81783","NORAD_CAT_ID":"47761","PERIAPSIS":"546.288","ARG_OF_PERICENTER":"90.2649","TIME_SYSTEM":"UTC","EPHEMERIS_TYPE":"0","REF_FRAME":"TEME","ELEMENT_SET_NO":"999","REV_AT_EPOCH":"8178","MEAN_ELEMENT_THEORY":"SGP4","CENTER_NAME":"EARTH","INCLINATION":"53.0537","SEMIMAJOR_AXIS":"6925.390","GP_ID":"210664806","ECCENTRICITY":"0.00013960","LAUNCH_DATE":"2021-03-04","MEAN_MOTION_DOT":"0.00000754","OBJECT_NAME":"STARLINK-2179","CLASSIFICATION_TYPE":"U","OBJECT_ID":"2021-017AR","FILE":"3542484","PERIOD":"95.593","TLE_LINE1":"1 47761U 21017AR  22233.82039390  .00000754  00000-0  69549-4 0  9995","APOAPSIS":"548.222","MEAN_ANOMALY":"269.8499","DECAY_DATE":null,"RCS_SIZE":"LARGE"},{"EPHEMERIS_TYPE":"0","REF_FRAME":"TEME","PERIAPSIS":"546.255","ARG_OF_PERICENTER":"66.0632","TIME_SYSTEM":"UTC","BSTAR":"-0.00000907510000","OBJECT_TYPE":"PAYLOAD","EPOCH":"2022-08-21T09:10:24.110400","TLE_LINE2":"2 47762  53.0556 285.9905 0001398  66.0632 294.0503 15.06396825 82158","NORAD_CAT_ID":"47762","COUNTRY_CODE":"US","MEAN_MOTION":"15.06396825","RA_OF_ASC_NODE":"285.9905","MEAN_MOTION_DDOT":"0.0000000000000","SITE":"AFETR","APOAPSIS":"548.191","TLE_LINE1":"1 47762U 21017AS  22233.38222350 -.00000417  00000-0 -90751-5 0  9995","MEAN_ANOMALY":"294.0503","DECAY_DATE":null,"RCS_SIZE":"LARGE","OBJECT_NAME":"STARLINK-2180","CLASSIFICATION_TYPE":"U","OBJECT_ID":"2021-017AS","FILE":"3542305","PERIOD":"95.592","GP_ID":"210656262","SEMIMAJOR_AXIS":"6925.358","ECCENTRICITY":"0.00013980","LAUNCH_DATE":"2021-03-04","MEAN_MOTION_DOT":"-0.00000417","ELEMENT_SET_NO":"999","REV_AT_EPOCH":"8215","CENTER_NAME":"EARTH","MEAN_ELEMENT_THEORY":"SGP4","INCLINATION":"53.0556"},{"LAUNCH_DATE":"2021-03-04","MEAN_MOTION_DOT":"-0.00001014","GP_ID":"210662724","SEMIMAJOR_AXIS":"6925.358","ECCENTRICITY":"0.00012830","INCLINATION":"53.0510","ELEMENT_SET_NO":"999","MEAN_ELEMENT_THEORY":"SGP4","REV_AT_EPOCH":"8166","CENTER_NAME":"EARTH","DECAY_DATE":null,"RCS_SIZE":"LARGE","MEAN_ANOMALY":"272.5695","TLE_LINE1":"1 47763U 21017AT  22233.53057537 -.00001014  00000-0 -49179-4 0  9997","APOAPSIS":"548.111","PERIOD":"95.592","CLASSIFICATION_TYPE":"U","OBJECT_NAME":"STARLINK-2181","FILE":"3542399","OBJECT_ID":"2021-017AT","TLE_LINE2":"2 47763  53.0510 275.3116 0001283  87.5440 272.5695 15.06396932 81661","NORAD_CAT_ID":"47763","OBJECT_TYPE":"PAYLOAD","BSTAR":"-0.00004917900000","EPOCH":"2022-08-21T12:44:01.711968","RA_OF_ASC_NODE":"275.3116","MEAN_MOTION_DDOT":"0.0000000000000","SITE":"AFETR","COUNTRY_CODE":"US","MEAN_MOTION":"15.06396932","REF_FRAME":"TEME","EPHEMERIS_TYPE":"0","TIME_SYSTEM":"UTC","PERIAPSIS":"546.334","ARG_OF_PERICENTER":"87.5440"},{"DECAY_DATE":null,"RCS_SIZE":"LARGE","TLE_LINE1":"1 47764U 21017AU  22233.83190504 -.00001637  00000-0 -91063-4 0  9993","MEAN_ANOMALY":"281.0810","APOAPSIS":"548.250","PERIOD":"95.593","OBJECT_NAME":"STARLINK-2182","CLASSIFICATION_TYPE":"U","OBJECT_ID":"2021-017AU","FILE":"3542671","LAUNCH_DATE":"2021-03-04","MEAN_MOTION_DOT":"-0.00001637","GP_ID":"210690807","SEMIMAJOR_AXIS":"6925.373","ECCENTRICITY":"0.00014610","INCLINATION":"53.0535","ELEMENT_SET_NO":"999","REV_AT_EPOCH":"8225","MEAN_ELEMENT_THEORY":"SGP4","CENTER_NAME":"EARTH","REF_FRAME":"TEME","EPHEMERIS_TYPE":"0","TIME_SYSTEM":"UTC","PERIAPSIS":"546.226","ARG_OF_PERICENTER":"79.0344","TLE_LINE2":"2 47764  53.0535 283.9609 0001461  79.0344 281.0810 15.06392041 82255","NORAD_CAT_ID":"47764","BSTAR":"-0.00009106300000","OBJECT_TYPE":"PAYLOAD","EPOCH":"2022-08-21T19:57:56.595456","RA_OF_ASC_NODE":"283.9609","MEAN_MOTION_DDOT":"0.0000000000000","SITE":"AFETR","COUNTRY_CODE":"US","MEAN_MOTION":"15.06392041"},{"TIME_SYSTEM":"UTC","ARG_OF_PERICENTER":"66.8291","PERIAPSIS":"546.267","REF_FRAME":"TEME","EPHEMERIS_TYPE":"0","MEAN_MOTION_DDOT":"0.0000000000000","SITE":"AFETR","RA_OF_ASC_NODE":"283.8645","MEAN_MOTION":"15.06385020","COUNTRY_CODE":"US","NORAD_CAT_ID":"47766","TLE_LINE2":"2 47766  53.0536 283.8645 0001433  66.8291 293.2849 15.06385020 82190","EPOCH":"2022-08-21T20:23:07.095552","BSTAR":"0.00004677000000","OBJECT_TYPE":"PAYLOAD","PERIOD":"95.593","OBJECT_ID":"2021-017AW","FILE":"3542671","OBJECT_NAME":"STARLINK-2184","CLASSIFICATION_TYPE":"U","RCS_SIZE":"LARGE","DECAY_DATE":null,"TLE_LINE1":"1 47766U 21017AW  22233.84938768  .00000415  00000-0  46770-4 0  9994","APOAPSIS":"548.252","MEAN_ANOMALY":"293.2849","INCLINATION":"53.0536","REV_AT_EPOCH":"8219","CENTER_NAME":"EARTH","MEAN_ELEMENT_THEORY":"SGP4","ELEMENT_SET_NO":"999","MEAN_MOTION_DOT":"0.00000415","LAUNCH_DATE":"2021-03-04","ECCENTRICITY":"0.00014330","GP_ID":"210691056","SEMIMAJOR_AXIS":"6925.394"},{"ELEMENT_SET_NO":"999","REV_AT_EPOCH":"8240","MEAN_ELEMENT_THEORY":"SGP4","CENTER_NAME":"EARTH","INCLINATION":"53.0539","GP_ID":"210656763","SEMIMAJOR_AXIS":"6925.378","ECCENTRICITY":"0.00013340","LAUNCH_DATE":"2021-03-04","MEAN_MOTION_DOT":"-0.00001249","CLASSIFICATION_TYPE":"U","OBJECT_NAME":"STARLINK-2185","FILE":"3542305","OBJECT_ID":"2021-017AX","PERIOD":"95.593","MEAN_ANOMALY":"287.5261","TLE_LINE1":"1 47767U 21017AX  22233.41124960 -.00001249  00000-0 -64979-4 0  9998","APOAPSIS":"548.166","DECAY_DATE":null,"RCS_SIZE":"LARGE","COUNTRY_CODE":"US","MEAN_MOTION":"15.06390555","RA_OF_ASC_NODE":"270.8437","MEAN_MOTION_DDOT":"0.0000000000000","SITE":"AFETR","OBJECT_TYPE":"PAYLOAD","BSTAR":"-0.00006497900000","EPOCH":"2022-08-21T09:52:11.965440","TLE_LINE2":"2 47767  53.0539 270.8437 0001334  72.5873 287.5261 15.06390555 82406","NORAD_CAT_ID":"47767","PERIAPSIS":"546.319","ARG_OF_PERICENTER":"72.5873","TIME_SYSTEM":"UTC","EPHEMERIS_TYPE":"0","REF_FRAME":"TEME"},{"LAUNCH_DATE":"2021-03-04","MEAN_MOTION_DOT":"-0.00000250","SEMIMAJOR_AXIS":"6925.381","GP_ID":"210690058","ECCENTRICITY":"0.00013320","INCLINATION":"53.0550","ELEMENT_SET_NO":"999","REV_AT_EPOCH":"8222","CENTER_NAME":"EARTH","MEAN_ELEMENT_THEORY":"SGP4","DECAY_DATE":null,"RCS_SIZE":"LARGE","TLE_LINE1":"1 47768U 21017AY  22233.85038238 -.00000250  00000-0  20953-5 0  9994","MEAN_ANOMALY":"292.9867","APOAPSIS":"548.168","PERIOD":"95.593","CLASSIFICATION_TYPE":"U","OBJECT_NAME":"STARLINK-2189","FILE":"3542671","OBJECT_ID":"2021-017AY","TLE_LINE2":"2 47768  53.0550 284.2681 0001332  67.1262 292.9867 15.06389407 82226","NORAD_CAT_ID":"47768","OBJECT_TYPE":"PAYLOAD","BSTAR":"0.00000209530000","EPOCH":"2022-08-21T20:24:33.037632","RA_OF_ASC_NODE":"284.2681","MEAN_MOTION_DDOT":"0.0000000000000","SITE":"AFETR","COUNTRY_CODE":"US","MEAN_MOTION":"15.06389407","REF_FRAME":"TEME","EPHEMERIS_TYPE":"0","TIME_SYSTEM":"UTC","PERIAPSIS":"546.324","ARG_OF_PERICENTER":"67.1262"},{"DECAY_DATE":null,"RCS_SIZE":"LARGE","TLE_LINE1":"1 47769U 21017AZ  22233.52735054 -.00000214  00000-0  45112-5 0  9993","APOAPSIS":"548.279","MEAN_ANOMALY":"291.1408","PERIOD":"95.593","OBJECT_NAME":"STARLINK-2192","CLASSIFICATION_TYPE":"U","OBJECT_ID":"2021-017AZ","FILE":"3542671","LAUNCH_DATE":"2021-03-04","MEAN_MOTION_DOT":"-0.00000214","GP_ID":"210690308","SEMIMAJOR_AXIS":"6925.376","ECCENTRICITY":"0.00014990","INCLINATION":"53.0546","ELEMENT_SET_NO":"999","REV_AT_EPOCH":"8269","CENTER_NAME":"EARTH","MEAN_ELEMENT_THEORY":"SGP4","REF_FRAME":"TEME","EPHEMERIS_TYPE":"0","TIME_SYSTEM":"UTC","PERIAPSIS":"546.203","ARG_OF_PERICENTER":"68.9741","TLE_LINE2":"2 47769  53.0546 250.3273 0001499  68.9741 291.1408 15.06391150 82699","NORAD_CAT_ID":"47769","BSTAR":"0.00000451120000","OBJECT_TYPE":"PAYLOAD","EPOCH":"2022-08-21T12:39:23.086656","RA_OF_ASC_NODE":"250.3273","MEAN_MOTION_DDOT":"0.0000000000000","SITE":"AFETR","COUNTRY_CODE":"US","MEAN_MOTION":"15.06391150"},{"CLASSIFICATION_TYPE":"U","OBJECT_NAME":"STARLINK-2193","FILE":"3542671","OBJECT_ID":"2021-017BA","PERIOD":"95.593","MEAN_ANOMALY":"291.4265","TLE_LINE1":"1 47770U 21017BA  22233.60153644 -.00001460  00000-0 -79145-4 0  9990","APOAPSIS":"548.338","DECAY_DATE":null,"RCS_SIZE":"LARGE","ELEMENT_SET_NO":"999","MEAN_ELEMENT_THEORY":"SGP4","REV_AT_EPOCH":"8247","CENTER_NAME":"EARTH","INCLINATION":"53.0532","GP_ID":"210691556","SEMIMAJOR_AXIS":"6925.388","ECCENTRICITY":"0.00015670","LAUNCH_DATE":"2021-03-04","MEAN_MOTION_DOT":"-0.00001460","PERIAPSIS":"546.167","ARG_OF_PERICENTER":"68.6891","TIME_SYSTEM":"UTC","EPHEMERIS_TYPE":"0","REF_FRAME":"TEME","COUNTRY_CODE":"US","MEAN_MOTION":"15.06387227","RA_OF_ASC_NODE":"264.9765","MEAN_MOTION_DDOT":"0.0000000000000","SITE":"AFETR","OBJECT_TYPE":"PAYLOAD","BSTAR":"-0.00007914500000","EPOCH":"2022-08-21T14:26:12.748416","TLE_LINE2":"2 47770  53.0532 264.9765 0001567  68.6891 291.4265 15.06387227 82472","NORAD_CAT_ID":"47770"}];
